[
    {
        "OBJECT_NAME": "SL-14 R/B",
        "OBJECT_ID": "1987-024B",
        "EPOCH": "2026-06-19T23:28:09.252768",
        "MEAN_MOTION": 14.86214627,
        "ECCENTRICITY": 0.00167251,
        "INCLINATION": 82.5279,
        "RA_OF_ASC_NODE": 356.6271,
        "ARG_OF_PERICENTER": 283.1537,
        "MEAN_ANOMALY": 76.7813,
        "EPHEMERIS_TYPE": 0,
        "CLASSIFICATION_TYPE": "U",
        "NORAD_CAT_ID": 17567,
        "ELEMENT_SET_NO": 999,
        "REV_AT_EPOCH": 10332,
        "BSTAR": 3.0051631e-05,
        "MEAN_MOTION_DOT": 2.89e-06,
        "MEAN_MOTION_DDOT": 0
    },
    {
        "OBJECT_NAME": "COSMOS 1833",
        "OBJECT_ID": "1987-027A",
        "EPOCH": "2026-06-20T07:03:07.108128",
        "MEAN_MOTION": 14.13052434,
        "ECCENTRICITY": 0.0022894,
        "INCLINATION": 70.9187,
        "RA_OF_ASC_NODE": 110.3381,
        "ARG_OF_PERICENTER": 49.9325,
        "MEAN_ANOMALY": 310.3799,
        "EPHEMERIS_TYPE": 0,
        "CLASSIFICATION_TYPE": "U",
        "NORAD_CAT_ID": 17589,
        "ELEMENT_SET_NO": 999,
        "REV_AT_EPOCH": 2481,
        "BSTAR": 0.00020577,
        "MEAN_MOTION_DOT": 3.37e-06,
        "MEAN_MOTION_DDOT": 0
    },
    {
        "OBJECT_NAME": "SL-16 R/B",
        "OBJECT_ID": "1987-027B",
        "EPOCH": "2026-06-20T09:25:04.118592",
        "MEAN_MOTION": 14.17171037,
        "ECCENTRICITY": 0.0006617,
        "INCLINATION": 71.0032,
        "RA_OF_ASC_NODE": 60.0747,
        "ARG_OF_PERICENTER": 308.6931,
        "MEAN_ANOMALY": 51.36,
        "EPHEMERIS_TYPE": 0,
        "CLASSIFICATION_TYPE": "U",
        "NORAD_CAT_ID": 17590,
        "ELEMENT_SET_NO": 999,
        "REV_AT_EPOCH": 2989,
        "BSTAR": -3.6749e-05,
        "MEAN_MOTION_DOT": -1.22e-06,
        "MEAN_MOTION_DDOT": 0
    },
    {
        "OBJECT_NAME": "SL-14 R/B",
        "OBJECT_ID": "1987-038B",
        "EPOCH": "2026-06-20T08:41:40.072704",
        "MEAN_MOTION": 14.85446646,
        "ECCENTRICITY": 0.0019181,
        "INCLINATION": 82.5005,
        "RA_OF_ASC_NODE": 200.0816,
        "ARG_OF_PERICENTER": 180.5956,
        "MEAN_ANOMALY": 179.5241,
        "EPHEMERIS_TYPE": 0,
        "CLASSIFICATION_TYPE": "U",
        "NORAD_CAT_ID": 17912,
        "ELEMENT_SET_NO": 999,
        "REV_AT_EPOCH": 9447,
        "BSTAR": 2.637e-05,
        "MEAN_MOTION_DOT": 2.52e-06,
        "MEAN_MOTION_DDOT": 0
    },
    {
        "OBJECT_NAME": "COSMOS 1844",
        "OBJECT_ID": "1987-041A",
        "EPOCH": "2026-06-20T10:20:10.205088",
        "MEAN_MOTION": 14.14567297,
        "ECCENTRICITY": 0.0032728,
        "INCLINATION": 70.8964,
        "RA_OF_ASC_NODE": 177.4655,
        "ARG_OF_PERICENTER": 230.8045,
        "MEAN_ANOMALY": 129.0169,
        "EPHEMERIS_TYPE": 0,
        "CLASSIFICATION_TYPE": "U",
        "NORAD_CAT_ID": 17973,
        "ELEMENT_SET_NO": 999,
        "REV_AT_EPOCH": 1811,
        "BSTAR": -2.0711e-05,
        "MEAN_MOTION_DOT": -8.9e-07,
        "MEAN_MOTION_DDOT": 0
    },
    {
        "OBJECT_NAME": "SL-14 R/B",
        "OBJECT_ID": "1987-055B",
        "EPOCH": "2026-06-20T07:42:29.703168",
        "MEAN_MOTION": 14.85712887,
        "ECCENTRICITY": 0.0021488,
        "INCLINATION": 82.4993,
        "RA_OF_ASC_NODE": 252.2749,
        "ARG_OF_PERICENTER": 37.8057,
        "MEAN_ANOMALY": 322.4664,
        "EPHEMERIS_TYPE": 0,
        "CLASSIFICATION_TYPE": "U",
        "NORAD_CAT_ID": 18153,
        "ELEMENT_SET_NO": 999,
        "REV_AT_EPOCH": 8517,
        "BSTAR": 2.9971e-05,
        "MEAN_MOTION_DOT": 2.86e-06,
        "MEAN_MOTION_DDOT": 0
    },
    {
        "OBJECT_NAME": "COSMOS 1867",
        "OBJECT_ID": "1987-060A",
        "EPOCH": "2026-06-19T23:56:26.133216",
        "MEAN_MOTION": 14.31515983,
        "ECCENTRICITY": 0.00165874,
        "INCLINATION": 65.0114,
        "RA_OF_ASC_NODE": 20.188,
        "ARG_OF_PERICENTER": 282.1795,
        "MEAN_ANOMALY": 77.7432,
        "EPHEMERIS_TYPE": 0,
        "CLASSIFICATION_TYPE": "U",
        "NORAD_CAT_ID": 18187,
        "ELEMENT_SET_NO": 999,
        "REV_AT_EPOCH": 3458,
        "BSTAR": 1.7989081e-05,
        "MEAN_MOTION_DOT": -5.2e-07,
        "MEAN_MOTION_DDOT": 0
    },
    {
        "OBJECT_NAME": "SL-14 R/B",
        "OBJECT_ID": "1988-001B",
        "EPOCH": "2026-06-20T06:08:42.631008",
        "MEAN_MOTION": 14.85611338,
        "ECCENTRICITY": 0.0016455,
        "INCLINATION": 82.5134,
        "RA_OF_ASC_NODE": 98.8867,
        "ARG_OF_PERICENTER": 258.4005,
        "MEAN_ANOMALY": 101.5364,
        "EPHEMERIS_TYPE": 0,
        "CLASSIFICATION_TYPE": "U",
        "NORAD_CAT_ID": 18749,
        "ELEMENT_SET_NO": 999,
        "REV_AT_EPOCH": 5725,
        "BSTAR": 3.2615e-05,
        "MEAN_MOTION_DOT": 3.07e-06,
        "MEAN_MOTION_DDOT": 0
    },
    {
        "OBJECT_NAME": "COSMOS 1933",
        "OBJECT_ID": "1988-020A",
        "EPOCH": "2026-06-20T09:32:45.498048",
        "MEAN_MOTION": 15.18731354,
        "ECCENTRICITY": 0.0003875,
        "INCLINATION": 82.5126,
        "RA_OF_ASC_NODE": 149.2557,
        "ARG_OF_PERICENTER": 174.6277,
        "MEAN_ANOMALY": 185.4999,
        "EPHEMERIS_TYPE": 0,
        "CLASSIFICATION_TYPE": "U",
        "NORAD_CAT_ID": 18958,
        "ELEMENT_SET_NO": 999,
        "REV_AT_EPOCH": 6581,
        "BSTAR": 0.00013551,
        "MEAN_MOTION_DOT": 2.844e-05,
        "MEAN_MOTION_DDOT": 0
    },
    {
        "OBJECT_NAME": "SL-3 R/B",
        "OBJECT_ID": "1988-032B",
        "EPOCH": "2026-06-20T09:37:49.774656",
        "MEAN_MOTION": 15.20859491,
        "ECCENTRICITY": 0.0024025,
        "INCLINATION": 97.5259,
        "RA_OF_ASC_NODE": 154.4385,
        "ARG_OF_PERICENTER": 233.0446,
        "MEAN_ANOMALY": 126.8589,
        "EPHEMERIS_TYPE": 0,
        "CLASSIFICATION_TYPE": "U",
        "NORAD_CAT_ID": 19046,
        "ELEMENT_SET_NO": 999,
        "REV_AT_EPOCH": 6771,
        "BSTAR": 0.00013757,
        "MEAN_MOTION_DOT": 2.988e-05,
        "MEAN_MOTION_DDOT": 0
    },
    {
        "OBJECT_NAME": "SL-16 R/B",
        "OBJECT_ID": "1988-039B",
        "EPOCH": "2026-06-20T10:22:54.917184",
        "MEAN_MOTION": 14.19630175,
        "ECCENTRICITY": 0.0022053,
        "INCLINATION": 71.0133,
        "RA_OF_ASC_NODE": 211.2959,
        "ARG_OF_PERICENTER": 188.2859,
        "MEAN_ANOMALY": 171.7905,
        "EPHEMERIS_TYPE": 0,
        "CLASSIFICATION_TYPE": "U",
        "NORAD_CAT_ID": 19120,
        "ELEMENT_SET_NO": 999,
        "REV_AT_EPOCH": 97296,
        "BSTAR": 8.1482e-05,
        "MEAN_MOTION_DOT": 1.24e-06,
        "MEAN_MOTION_DDOT": 0
    },
    {
        "OBJECT_NAME": "COSMOS 1953",
        "OBJECT_ID": "1988-050A",
        "EPOCH": "2026-06-20T10:04:16.678272",
        "MEAN_MOTION": 15.30015132,
        "ECCENTRICITY": 0.0012301,
        "INCLINATION": 82.5073,
        "RA_OF_ASC_NODE": 54.7747,
        "ARG_OF_PERICENTER": 116.318,
        "MEAN_ANOMALY": 243.9325,
        "EPHEMERIS_TYPE": 0,
        "CLASSIFICATION_TYPE": "U",
        "NORAD_CAT_ID": 19210,
        "ELEMENT_SET_NO": 999,
        "REV_AT_EPOCH": 5348,
        "BSTAR": 0.00021544,
        "MEAN_MOTION_DOT": 6.304e-05,
        "MEAN_MOTION_DDOT": 0
    },
    {
        "OBJECT_NAME": "SL-8 R/B",
        "OBJECT_ID": "1988-053B",
        "EPOCH": "2026-06-20T09:53:54.212064",
        "MEAN_MOTION": 14.38968456,
        "ECCENTRICITY": 0.0019174,
        "INCLINATION": 74.0482,
        "RA_OF_ASC_NODE": 283.112,
        "ARG_OF_PERICENTER": 77.247,
        "MEAN_ANOMALY": 345.2112,
        "EPHEMERIS_TYPE": 0,
        "CLASSIFICATION_TYPE": "U",
        "NORAD_CAT_ID": 19257,
        "ELEMENT_SET_NO": 999,
        "REV_AT_EPOCH": 99137,
        "BSTAR": 5.1564e-05,
        "MEAN_MOTION_DOT": 1.33e-06,
        "MEAN_MOTION_DDOT": 0
    }
]